{"type": "FeatureCollection", "features": [ {"type": "Feature", "properties": {"norad_id": 41175, "name": "GSAT0208 (GALILEO 11)", "group": "galileo", "lat": 55.26523560069906, "lon": -153.18425287613073, "alt_km": 23217.14233122391, "timestamp": "2025-12-24T14:43:29.264655+00:00", "meta": {"OBJECT_NAME": "GSAT0208 (GALILEO 11)", "OBJECT_ID": "2015-079B", "EPOCH": "2025-12-23T06:48:42.697728", "MEAN_MOTION": 1.7047421, "ECCENTRICITY": 0.0001871, "INCLINATION": 55.7171, "RA_OF_ASC_NODE": 106.0888, "ARG_OF_PERICENTER": 351.9973, "MEAN_ANOMALY": 7.984, "EPHEMERIS_TYPE": 0, "CLASSIFICATION_TYPE": "U", "NORAD_CAT_ID": 41175, "ELEMENT_SET_NO": 999, "REV_AT_EPOCH": 6219, "BSTAR": 0, "MEAN_MOTION_DOT": 1.1e-07, "MEAN_MOTION_DDOT": 0}, "tle": {"line1": "1 41175U 15079B   25357.28382752  .00000011  00000+0  00000+0 0  9999", "line2": "2 41175  55.7171 106.0888 0001871 351.9973   7.9840  1.70474210 62193"}}, "geometry": {"type": "Point", "coordinates": [-153.18425287613073, 55.26523560069906]}}, {"type": "Feature", "properties": {"norad_id": 41549, "name": "GSAT0211 (GALILEO 14)", "group": "galileo", "lat": 16.228461242665027, "lon": -121.78948400977661, "alt_km": 23208.273607373754, "timestamp": "2025-12-24T14:43:29.264666+00:00", "meta": {"OBJECT_NAME": "GSAT0211 (GALILEO 14)", "OBJECT_ID": "2016-030A", "EPOCH": "2025-12-22T05:38:05.943264", "MEAN_MOTION": 1.70473275, "ECCENTRICITY": 0.00040882, "INCLINATION": 55.1491, "RA_OF_ASC_NODE": 226.562, "ARG_OF_PERICENTER": 17.521, "MEAN_ANOMALY": 342.5988, "EPHEMERIS_TYPE": 0, "CLASSIFICATION_TYPE": "U", "NORAD_CAT_ID": 41549, "ELEMENT_SET_NO": 999, "REV_AT_EPOCH": 5965, "BSTAR": 0, "MEAN_MOTION_DOT": 7.3e-07, "MEAN_MOTION_DDOT": 0}, "tle": {"line1": "1 41549U 16030A   25356.23479101  .00000073  00000+0  00000+0 0  9999", "line2": "2 41549  55.1491 226.5620 0004088  17.5210 342.5988  1.70473275 59659"}}, "geometry": {"type": "Point", "coordinates": [-121.78948400977661, 16.228461242665027]}}, {"type": "Feature", "properties": {"norad_id": 41550, "name": "GSAT0210 (GALILEO 13)", "group": "galileo", "lat": -33.27800643791973, "lon": 73.71795559029921, "alt_km": 23225.174860635, "timestamp": "2025-12-24T14:43:29.264686+00:00", "meta": {"OBJECT_NAME": "GSAT0210 (GALILEO 13)", "OBJECT_ID": "2016-030B", "EPOCH": "2025-12-23T01:53:26.064096", "MEAN_MOTION": 1.704734, "ECCENTRICITY": 5.527e-05, "INCLINATION": 55.1484, "RA_OF_ASC_NODE": 226.5368, "ARG_OF_PERICENTER": 180.205, "MEAN_ANOMALY": 179.8969, "EPHEMERIS_TYPE": 0, "CLASSIFICATION_TYPE": "U", "NORAD_CAT_ID": 41550, "ELEMENT_SET_NO": 999, "REV_AT_EPOCH": 5966, "BSTAR": 0, "MEAN_MOTION_DOT": 7.3e-07, "MEAN_MOTION_DDOT": 0}, "tle": {"line1": "1 41550U 16030B   25357.07877389  .00000073  00000+0  00000+0 0  9994", "line2": "2 41550  55.1484 226.5368 0000552 180.2050 179.8969  1.70473400 59665"}}, "geometry": {"type": "Point", "coordinates": [73.71795559029921, -33.27800643791973]}}, {"type": "Feature", "properties": {"norad_id": 41859, "name": "GSAT0207 (GALILEO 15)", "group": "galileo", "lat": 39.90651372710745, "lon": 141.14109537616454, "alt_km": 23217.765529982942, "timestamp": "2025-12-24T14:43:29.264705+00:00", "meta": {"OBJECT_NAME": "GSAT0207 (GALILEO 15)", "OBJECT_ID": "2016-069A", "EPOCH": "2025-12-22T04:24:39.710016", "MEAN_MOTION": 1.70474442, "ECCENTRICITY": 0.00024396, "INCLINATION": 55.3874, "RA_OF_ASC_NODE": 105.9888, "ARG_OF_PERICENTER": 317.4324, "MEAN_ANOMALY": 42.5257, "EPHEMERIS_TYPE": 0, "CLASSIFICATION_TYPE": "U", "NORAD_CAT_ID": 41859, "ELEMENT_SET_NO": 999, "REV_AT_EPOCH": 5638, "BSTAR": 0, "MEAN_MOTION_DOT": 6e-08, "MEAN_MOTION_DDOT": 0}, "tle": {"line1": "1 41859U 16069A   25356.18379294  .00000006  00000+0  00000+0 0  9997", "line2": "2 41859  55.3874 105.9888 0002439 317.4324  42.5257  1.70474442 56382"}}, "geometry": {"type": "Point", "coordinates": [141.14109537616454, 39.90651372710745]}}, {"type": "Feature", "properties": {"norad_id": 41860, "name": "GSAT0212 (GALILEO 16)", "group": "galileo", "lat": 31.152546370463025, "lon": -98.72037820126396, "alt_km": 23221.601640629076, "timestamp": "2025-12-24T14:43:29.264718+00:00", "meta": {"OBJECT_NAME": "GSAT0212 (GALILEO 16)", "OBJECT_ID": "2016-069B", "EPOCH": "2025-12-23T19:07:58.352160", "MEAN_MOTION": 1.7047463, "ECCENTRICITY": 0.00020402, "INCLINATION": 55.386, "RA_OF_ASC_NODE": 105.9395, "ARG_OF_PERICENTER": 18.1748, "MEAN_ANOMALY": 341.8198, "EPHEMERIS_TYPE": 0, "CLASSIFICATION_TYPE": "U", "NORAD_CAT_ID": 41860, "ELEMENT_SET_NO": 999, "REV_AT_EPOCH": 5666, "BSTAR": 0, "MEAN_MOTION_DOT": 1.3e-07, "MEAN_MOTION_DDOT": 0}, "tle": {"line1": "1 41860U 16069B   25357.79720315  .00000013  00000+0  00000+0 0  9999", "line2": "2 41860  55.3860 105.9395 0002040  18.1748 341.8198  1.70474630 56664"}}, "geometry": {"type": "Point", "coordinates": [-98.72037820126396, 31.152546370463025]}}, {"type": "Feature", "properties": {"norad_id": 41861, "name": "GSAT0213 (GALILEO 17)", "group": "galileo", "lat": -55.04158821473657, "lon": 25.407226142684348, "alt_km": 23219.94862389902, "timestamp": "2025-12-24T14:43:29.264730+00:00", "meta": {"OBJECT_NAME": "GSAT0213 (GALILEO 17)", "OBJECT_ID": "2016-069C", "EPOCH": "2025-12-21T19:38:29.842080", "MEAN_MOTION": 1.70474953, "ECCENTRICITY": 0.00027355, "INCLINATION": 55.3872, "RA_OF_ASC_NODE": 106.002, "ARG_OF_PERICENTER": 282.3014, "MEAN_ANOMALY": 77.6427, "EPHEMERIS_TYPE": 0, "CLASSIFICATION_TYPE": "U", "NORAD_CAT_ID": 41861, "ELEMENT_SET_NO": 999, "REV_AT_EPOCH": 5649, "BSTAR": 0, "MEAN_MOTION_DOT": 4e-08, "MEAN_MOTION_DDOT": 0}, "tle": {"line1": "1 41861U 16069C   25355.81840095  .00000004  00000+0  00000+0 0  9999", "line2": "2 41861  55.3872 106.0020 0002735 282.3014  77.6427  1.70474953 56495"}}, "geometry": {"type": "Point", "coordinates": [25.407226142684348, -55.04158821473657]}}, {"type": "Feature", "properties": {"norad_id": 41862, "name": "GSAT0214 (GALILEO 18)", "group": "galileo", "lat": -4.797135821737937, "lon": -70.76459469943492, "alt_km": 23223.981228168577, "timestamp": "2025-12-24T14:43:29.264741+00:00", "meta": {"OBJECT_NAME": "GSAT0214 (GALILEO 18)", "OBJECT_ID": "2016-069D", "EPOCH": "2025-12-21T09:04:04.029024", "MEAN_MOTION": 1.70474854, "ECCENTRICITY": 0.00016223, "INCLINATION": 55.385, "RA_OF_ASC_NODE": 106.0069, "ARG_OF_PERICENTER": 287.8422, "MEAN_ANOMALY": 72.112, "EPHEMERIS_TYPE": 0, "CLASSIFICATION_TYPE": "U", "NORAD_CAT_ID": 41862, "ELEMENT_SET_NO": 999, "REV_AT_EPOCH": 5661, "BSTAR": 0, "MEAN_MOTION_DOT": 2e-08, "MEAN_MOTION_DDOT": 0}, "tle": {"line1": "1 41862U 16069D   25355.37782441  .00000002  00000+0  00000+0 0  9999", "line2": "2 41862  55.3850 106.0069 0001622 287.8422  72.1120  1.70474854 56616"}}, "geometry": {"type": "Point", "coordinates": [-70.76459469943492, -4.797135821737937]}}, {"type": "Feature", "properties": {"norad_id": 43055, "name": "GSAT0215 (GALILEO 19)", "group": "galileo", "lat": -48.019595559834194, "lon": 97.11805418825212, "alt_km": 23228.49896924108, "timestamp": "2025-12-24T14:43:29.264752+00:00", "meta": {"OBJECT_NAME": "GSAT0215 (GALILEO 19)", "OBJECT_ID": "2017-079A", "EPOCH": "2025-12-21T06:45:20.639232", "MEAN_MOTION": 1.70474038, "ECCENTRICITY": 0.0001214, "INCLINATION": 55.1273, "RA_OF_ASC_NODE": 226.4024, "ARG_OF_PERICENTER": 349.3948, "MEAN_ANOMALY": 10.7111, "EPHEMERIS_TYPE": 0, "CLASSIFICATION_TYPE": "U", "NORAD_CAT_ID": 43055, "ELEMENT_SET_NO": 999, "REV_AT_EPOCH": 4995, "BSTAR": 0, "MEAN_MOTION_DOT": 7.3e-07, "MEAN_MOTION_DDOT": 0}, "tle": {"line1": "1 43055U 17079A   25355.28148888  .00000073  00000+0  00000+0 0  9996", "line2": "2 43055  55.1273 226.4024 0001214 349.3948  10.7111  1.70474038 49952"}}, "geometry": {"type": "Point", "coordinates": [97.11805418825212, -48.019595559834194]}}, {"type": "Feature", "properties": {"norad_id": 43056, "name": "GSAT0216 (GALILEO 20)", "group": "galileo", "lat": 48.65346474886705, "lon": -81.27283572228593, "alt_km": 23217.626077388584, "timestamp": "2025-12-24T14:43:29.264764+00:00", "meta": {"OBJECT_NAME": "GSAT0216 (GALILEO 20)", "OBJECT_ID": "2017-079B", "EPOCH": "2025-12-22T17:54:08.003808", "MEAN_MOTION": 1.70474127, "ECCENTRICITY": 0.00023154, "INCLINATION": 55.1272, "RA_OF_ASC_NODE": 226.3621, "ARG_OF_PERICENTER": 325.7724, "MEAN_ANOMALY": 34.3161, "EPHEMERIS_TYPE": 0, "CLASSIFICATION_TYPE": "U", "NORAD_CAT_ID": 43056, "ELEMENT_SET_NO": 999, "REV_AT_EPOCH": 4999, "BSTAR": 0, "MEAN_MOTION_DOT": 7.3e-07, "MEAN_MOTION_DDOT": 0}, "tle": {"line1": "1 43056U 17079B   25356.74592597  .00000073  00000+0  00000+0 0  9999", "line2": "2 43056  55.1272 226.3621 0002315 325.7724  34.3161  1.70474127 49997"}}, "geometry": {"type": "Point", "coordinates": [-81.27283572228593, 48.65346474886705]}}, {"type": "Feature", "properties": {"norad_id": 43057, "name": "GSAT0217 (GALILEO 21)", "group": "galileo", "lat": -50.10367961635766, "lon": 169.81143253188444, "alt_km": 23223.795249801537, "timestamp": "2025-12-24T14:43:29.264775+00:00", "meta": {"OBJECT_NAME": "GSAT0217 (GALILEO 21)", "OBJECT_ID": "2017-079C", "EPOCH": "2025-12-21T04:57:56.651616", "MEAN_MOTION": 1.70474014, "ECCENTRICITY": 0.00027256, "INCLINATION": 55.1257, "RA_OF_ASC_NODE": 226.4024, "ARG_OF_PERICENTER": 351.227, "MEAN_ANOMALY": 8.8769, "EPHEMERIS_TYPE": 0, "CLASSIFICATION_TYPE": "U", "NORAD_CAT_ID": 43057, "ELEMENT_SET_NO": 999, "REV_AT_EPOCH": 4995, "BSTAR": 0, "MEAN_MOTION_DOT": 7.3e-07, "MEAN_MOTION_DDOT": 0}, "tle": {"line1": "1 43057U 17079C   25355.20690569  .00000073  00000+0  00000+0 0  9998", "line2": "2 43057  55.1257 226.4024 0002725 351.2270   8.8769  1.70474014 49955"}}, "geometry": {"type": "Point", "coordinates": [169.81143253188444, -50.10367961635766]}}]}